NORAD_CAT_ID,OBJECT_NAME,OBJECT_TYPE,EPOCH,MEAN_MOTION,ECCENTRICITY,INCLINATION,RA_OF_ASC_NODE,ARG_OF_PERICENTER,MEAN_ANOMALY,BSTAR,MEAN_MOTION_DOT,MEAN_MOTION_DDOT,TLE_LINE0,TLE_LINE1,TLE_LINE2,SEMIMAJOR_AXIS,PERIOD,APOGEE,PERIGEE,DECAYED
53002.0,STARLINK-4121,PAYLOAD,2023-01-08 22:17:40,15.08854311,0.0002631,53.2135,242.5417,31.3793,328.7356,0.00070816,0.00011005,0.0,0 STARLINK-4121,1 53002U 22076S   23008.92893639  .00011005  00000-0  70816-3 0  9991,2 53002  53.2135 242.5417 0002631  31.3793 328.7356 15.08854311 28363,6917.837,95.437,541.5219999999998,537.882,0.0
53002.0,STARLINK-4121,PAYLOAD,2023-01-09 01:28:26,15.08858643,0.0002662,53.2145,241.9471,32.2591,327.8564,0.00076522,0.00011918,0.0,0 STARLINK-4121,1 53002U 22076S   23009.06141475  .00011918  00000-0  76522-3 0  9994,2 53002  53.2145 241.9471 0002662  32.2591 327.8564 15.08858643 28854,6917.823,95.436,541.53,537.847,0.0
53002.0,STARLINK-4121,PAYLOAD,2023-01-09 07:49:58,15.08843029,0.000292,53.2143,240.7572,37.7743,322.3454,3.2047e-05,2.21e-06,0.0,0 STARLINK-4121,1 53002U 22076S   23009.32637608  .00000221  00000-0  32047-4 0  9991,2 53002  53.2143 240.7572 0002920  37.7743 322.3454 15.08843029 28420,6917.871,95.437,541.756,537.716,0.0
53002.0,STARLINK-4121,PAYLOAD,2023-01-09 15:46:54,15.08852191,0.0002734,53.2141,239.27,31.2163,328.8991,0.00038194,5.798e-05,0.0,0 STARLINK-4121,1 53002U 22076S   23009.65757359  .00005798  00000-0  38194-3 0  9995,2 53002  53.2141 239.2700 0002734  31.2163 328.8991 15.08852191 28946,6917.843000000002,95.437,541.599,537.817,0.0
53002.0,STARLINK-4121,PAYLOAD,2023-01-09 22:08:26,15.08859345,0.0002754,53.2143,238.0802,32.4219,327.6942,0.0004418,6.754e-05,0.0,0 STARLINK-4121,1 53002U 22076S   23009.92252960  .00006754  00000-0  44180-3 0  9998,2 53002  53.2143 238.0802 0002754  32.4219 327.6942 15.08859345 28519,6917.821,95.436,541.591,537.781,0.0
53002.0,STARLINK-4121,PAYLOAD,2023-01-10 07:40:45,15.08847466,0.000267,53.2143,236.2968,28.6084,331.5054,0.00021192,3.087e-05,0.0,0 STARLINK-4121,1 53002U 22076S   23010.31996815  .00003087  00000-0  21192-3 0  9991,2 53002  53.2143 236.2968 0002670  28.6084 331.5054 15.08847466 29044,6917.858,95.437,541.57,537.876,0.0
53002.0,STARLINK-4121,PAYLOAD,2023-01-11 07:31:32,15.08839971,0.000261,53.2137,231.8366,34.3153,325.8007,0.00018775,2.701e-05,0.0,0 STARLINK-4121,1 53002U 22076S   23011.31357117  .00002701  00000-0  18775-3 0  9993,2 53002  53.2137 231.8366 0002610  34.3153 325.8007 15.08839971 29197,6917.88,95.438,541.5509999999998,537.94,0.0
53002.0,STARLINK-4121,PAYLOAD,2023-01-12 15:19:16,15.08828047,0.000249,53.2131,225.8877,30.4455,329.6681,-5.1819e-05,-1.113e-05,0.0,0 STARLINK-4121,1 53002U 22076S   23012.63838033 -.00001113  00000-0 -51819-4 0  9995,2 53002  53.2131 225.8877 0002490  30.4455 329.6681 15.08828047 29393,6917.917,95.438,541.504,538.059,0.0
53002.0,STARLINK-4121,PAYLOAD,2023-01-12 21:40:48,15.08871165,0.0002706,53.2162,224.6992,29.2772,330.8371,-0.00042391,-7.035e-05,0.0,0 STARLINK-4121,1 53002U 22076S   23012.90334300 -.00007035  00000-0 -42391-3 0  9996,2 53002  53.2162 224.6992 0002706  29.2772 330.8371 15.08871165 28961,6917.785,95.436,541.5219999999998,537.778,0.0
53002.0,STARLINK-4121,PAYLOAD,2023-01-12 23:16:11,15.08846294,0.0002542,53.214,224.4009,27.8553,332.2575,-0.00030031,-5.066e-05,0.0,0 STARLINK-4121,1 53002U 22076S   23012.96957595 -.00005066  00000-0 -30031-3 0  9999,2 53002  53.2140 224.4009 0002542  27.8553 332.2575 15.08846294 29444,6917.861,95.437,541.485,537.9680000000002,0.0
53002.0,STARLINK-4121,PAYLOAD,2023-01-13 13:34:40,15.08836563,0.0002588,53.2141,221.7248,33.6311,326.4845,9.2543e-05,1.185e-05,0.0,0 STARLINK-4121,1 53002U 22076S   23013.56574176  .00001185  00000-0  92543-4 0  9999,2 53002  53.2141 221.7248 0002588  33.6311 326.4845 15.08836563 29068,6917.891,95.438,541.5459999999999,537.966,0.0
53002.0,STARLINK-4121,PAYLOAD,2023-01-13 19:56:12,15.08839598,0.0002592,53.2139,220.5354,33.9443,326.1715,0.00013791,1.907e-05,0.0,0 STARLINK-4121,1 53002U 22076S   23013.83070098  .00001907  00000-0  13791-3 0  9992,2 53002  53.2139 220.5354 0002592  33.9443 326.1715 15.08839598 29103,6917.882,95.438,541.54,537.9540000000001,0.0
53002.0,STARLINK-4121,PAYLOAD,2023-01-14 07:03:54,15.08840289,0.0002638999999999,53.2139,218.4538,35.3922,324.7245,0.00023181,3.403e-05,0.0,0 STARLINK-4121,1 53002U 22076S   23014.29438262  .00003403  00000-0  23181-3 0  9991,2 53002  53.2139 218.4538 0002639  35.3922 324.7245 15.08840289 29643,6917.88,95.438,541.57,537.919,0.0
53002.0,STARLINK-4121,PAYLOAD,2023-01-15 13:16:14,15.08840117,0.0002702,53.2126,212.8033,40.1777,319.9414,6.3213e-05,7.18e-06,0.0,0 STARLINK-4121,1 53002U 22076S   23015.55294457  .00000718  00000-0  63213-4 0  9994,2 53002  53.2126 212.8033 0002702  40.1777 319.9414 15.08840117 29835,6917.88,95.438,541.614,537.876,0.0
53002.0,STARLINK-4121,PAYLOAD,2023-01-15 19:37:46,15.08842672,0.0002528,53.214,211.6139,39.4687,320.6489,9.2554e-05,1.185e-05,0.0,0 STARLINK-4121,1 53002U 22076S   23015.81790293  .00001185  00000-0  92554-4 0  9991,2 53002  53.2140 211.6139 0002528  39.4687 320.6489 15.08842672 29404,6917.871999999999,95.437,541.486,537.988,0.0
53002.0,STARLINK-4121,PAYLOAD,2023-01-16 13:07:01,15.08838475,0.0002578,53.214,208.3424,42.858,317.2613,7.2992e-05,8.73e-06,0.0,0 STARLINK-4121,1 53002U 22076S   23016.54654603  .00000873  00000-0  72992-4 0  9993,2 53002  53.2140 208.3424 0002578  42.8580 317.2613 15.08838475 29518,6917.885,95.438,541.533,537.967,0.0
53002.0,STARLINK-4121,PAYLOAD,2023-01-16 21:03:57,15.08838774,0.0002444,53.2143,206.856,41.9814,318.1365,5.8546000000000005e-05,6.43e-06,0.0,0 STARLINK-4121,1 53002U 22076S   23016.87774612  .00000643  00000-0  58546-4 0  9996,2 53002  53.2143 206.8560 0002444  41.9814 318.1365 15.08838774 30032,6917.884,95.438,541.44,538.058,0.0
53002.0,STARLINK-4121,PAYLOAD,2023-01-17 12:57:49,15.08835077,0.0002420999999999,53.2152,203.8821,43.8623,316.2561,4.1274e-05,3.68e-06,0.0,0 STARLINK-4121,1 53002U 22076S   23017.54015126  .00000368  00000-0  41274-4 0  9993,2 53002  53.2152 203.8821 0002421  43.8623 316.2561 15.08835077 29660,6917.895,95.438,541.435,538.086,0.0
53002.0,STARLINK-4121,PAYLOAD,2023-01-17 20:54:44,15.08839696,0.0002476,53.2152,202.3953,43.6567,316.462,7.0862e-05,8.400000000000001e-06,0.0,0 STARLINK-4121,1 53002U 22076S   23017.87134807  .00000840  00000-0  70862-4 0  9997,2 53002  53.2152 202.3953 0002476  43.6567 316.4620 15.08839696 29710,6917.880999999999,95.438,541.4590000000001,538.033,0.0
53002.0,STARLINK-4121,PAYLOAD,2023-01-17 22:30:07,15.08840067,0.0002478,53.2152,202.0979,43.8886,316.2303,7.327e-05,8.78e-06,0.0,0 STARLINK-4121,1 53002U 22076S   23017.93758788  .00000878  00000-0  73270-4 0  9991,2 53002  53.2152 202.0979 0002478  43.8886 316.2303 15.08840067 30197,6917.88,95.438,541.4590000000001,538.031,0.0
53002.0,STARLINK-4121,PAYLOAD,2023-01-18 12:48:37,15.08815033,0.000213,53.2154,199.4214,42.7358,317.3799,-8.915e-05,-1.706e-05,0.0,0 STARLINK-4121,1 53002U 22076S   23018.53377106 -.00001706  00000-0 -89150-4 0  9996,2 53002  53.2154 199.4214 0002130  42.7358 317.3799 15.08815033 29810,6917.956999999999,95.439,541.295,538.3480000000001,0.0
53002.0,STARLINK-4121,PAYLOAD,2023-01-18 19:10:11,15.08806006,0.0002201999999999,53.2143,198.2305,37.6787,322.4359,-0.00016511,-2.913e-05,0.0,0 STARLINK-4121,1 53002U 22076S   23018.79874286 -.00002913  00000-0 -16511-3 0  9996,2 53002  53.2143 198.2305 0002202  37.6787 322.4359 15.08806006 30322,6917.984,95.44,541.373,538.326,0.0
53002.0,STARLINK-4121,PAYLOAD,2023-01-19 04:42:29,15.08821014,0.0002319,53.2156,196.4477,44.9653,315.1526,-1.8708e-05,-5.86e-06,0.0,0 STARLINK-4121,1 53002U 22076S   23019.19617625 -.00000586  00000-0 -18708-4 0  9998,2 53002  53.2156 196.4477 0002319  44.9653 315.1526 15.08821014 30385,6917.938,95.439,541.408,538.1990000000001,0.0
53002.0,STARLINK-4121,PAYLOAD,2023-01-19 11:04:01,15.08827668,0.0002112999999999,53.2143,195.2556,46.5679,313.5489,3.645e-05,2.92e-06,0.0,0 STARLINK-4121,1 53002U 22076S   23019.46113274  .00000292  00000-0  36450-4 0  9995,2 53002  53.2143 195.2556 0002113  46.5679 313.5489 15.08827668 30420,6917.918000000001,95.438,541.245,538.321,0.0
53002.0,STARLINK-4121,PAYLOAD,2023-01-19 12:39:24,15.08838475,0.0002366,53.2145,194.9606,44.4692,315.6489,0.0001149999999999,1.542e-05,0.0,0 STARLINK-4121,1 53002U 22076S   23019.52736473  .00001542  00000-0  11500-3 0  9991,2 53002  53.2145 194.9606 0002366  44.4692 315.6489 15.08838475 29964,6917.885,95.438,541.387,538.113,0.0
53002.0,STARLINK-4121,PAYLOAD,2023-01-19 19:00:56,15.08846402,0.0002238,53.2151,193.7711,43.1973,316.9194,0.00018429,2.646e-05,0.0,0 STARLINK-4121,1 53002U 22076S   23019.79231868  .00002646  00000-0  18429-3 0  9991,2 53002  53.2151 193.7711 0002238  43.1973 316.9194 15.08846402 30475,6917.861,95.437,541.274,538.178,0.0
53002.0,STARLINK-4121,PAYLOAD,2023-01-21 04:24:01,15.08860086,0.0002352,53.2152,187.5268,46.7981,313.3207,0.0002517,3.722e-05,0.0,0 STARLINK-4121,1 53002U 22076S   23021.18334623  .00003722  00000-0  25170-3 0  9997,2 53002  53.2152 187.5268 0002352  46.7981 313.3207 15.08860086 30682,6917.819,95.436,541.311,538.057,0.0
53002.0,STARLINK-4121,PAYLOAD,2023-01-21 10:45:34,15.08856304,0.0002839,53.2155,186.3384,54.1659,305.9597,0.00013919,1.928e-05,0.0,0 STARLINK-4121,1 53002U 22076S   23021.44831345  .00001928  00000-0  13919-3 0  9993,2 53002  53.2155 186.3384 0002839  54.1659 305.9597 15.08856304 30728,6917.831,95.437,541.66,537.732,0.0
53002.0,STARLINK-4121,PAYLOAD,2023-01-22 04:14:48,15.08850804,0.0002265,53.2152,183.0672,48.2439,311.8746,2.9437e-06,-2.42e-06,0.0,0 STARLINK-4121,1 53002U 22076S   23022.17694770 -.00000242  00000-0  29437-5 0  9996,2 53002  53.2152 183.0672 0002265  48.2439 311.8746 15.08850804 30835,6917.847,95.437,541.279,538.145,0.0
